start=new Date('2023-04-30T00:00:00.000Z').valueOf();
sats=[{"PERIAPSIS":"539.016","SITE":"AFETR","ECCENTRICITY":"0.00010830","PERIOD":"95.438","MEAN_ELEMENT_THEORY":"SGP4","APOAPSIS":"540.515","OBJECT_NAME":"STARLINK-3762","TLE_LINE2":"2 52374  53.2139 201.2315 0001083  92.1476 267.9640 15.08833387 58138","TIME_SYSTEM":"UTC","LAUNCH_DATE":"2022-04-29","CENTER_NAME":"EARTH","DECAY_DATE":null,"EPOCH":"2023-04-29T11:37:04.304640","COUNTRY_CODE":"US","ELEMENT_SET_NO":"999","EPHEMERIS_TYPE":"0","OBJECT_ID":"2022-045AV","ARG_OF_PERICENTER":"92.1476","TLE_LINE1":"1 52374U 22045AV  23119.48407760  .00000243  00000-0  33341-4 0  9993","BSTAR":"0.00003334100000","RCS_SIZE":"LARGE","CLASSIFICATION_TYPE":"U","MEAN_ANOMALY":"267.9640","SEMIMAJOR_AXIS":"6917.901","GP_ID":"230930505","MEAN_MOTION_DOT":"0.00000243","REF_FRAME":"TEME","FILE":"3896517","OBJECT_TYPE":"PAYLOAD","INCLINATION":"53.2139","NORAD_CAT_ID":"52374","REV_AT_EPOCH":"5813","MEAN_MOTION_DDOT":"0.0000000000000","MEAN_MOTION":"15.08833387","RA_OF_ASC_NODE":"201.2315"},{"ELEMENT_SET_NO":"999","COUNTRY_CODE":"US","EPOCH":"2023-04-29T11:42:22.090752","DECAY_DATE":null,"LAUNCH_DATE":"2022-04-29","CENTER_NAME":"EARTH","MEAN_ELEMENT_THEORY":"SGP4","APOAPSIS":"540.322","OBJECT_NAME":"STARLINK-3785","TLE_LINE2":"2 52375  53.2139 201.2142 0000845  84.0516 276.0572 15.08842493 58130","TIME_SYSTEM":"UTC","SITE":"AFETR","ECCENTRICITY":"0.00008450","PERIOD":"95.437","PERIAPSIS":"539.153","REV_AT_EPOCH":"5813","MEAN_MOTION_DDOT":"0.0000000000000","MEAN_MOTION":"15.08842493","RA_OF_ASC_NODE":"201.2142","INCLINATION":"53.2139","NORAD_CAT_ID":"52375","SEMIMAJOR_AXIS":"6917.873","GP_ID":"230929773","MEAN_MOTION_DOT":"0.00020351","REF_FRAME":"TEME","FILE":"3896517","OBJECT_TYPE":"PAYLOAD","CLASSIFICATION_TYPE":"U","MEAN_ANOMALY":"276.0572","BSTAR":"0.00129300000000","RCS_SIZE":"LARGE","TLE_LINE1":"1 52375U 22045AW  23119.48775568  .00020351  00000-0  12930-2 0  9999","ARG_OF_PERICENTER":"84.0516","OBJECT_ID":"2022-045AW","EPHEMERIS_TYPE":"0"},{"PERIAPSIS":"538.815","PERIOD":"95.436","ECCENTRICITY":"0.00012500","SITE":"AFETR","TIME_SYSTEM":"UTC","TLE_LINE2":"2 52376  53.2157 200.0753 0001250  86.1241 273.9894 15.08861506 58178","APOAPSIS":"540.544","OBJECT_NAME":"STARLINK-3767","MEAN_ELEMENT_THEORY":"SGP4","CENTER_NAME":"EARTH","LAUNCH_DATE":"2022-04-29","DECAY_DATE":null,"EPOCH":"2023-04-29T17:47:59.822304","COUNTRY_CODE":"US","ELEMENT_SET_NO":"999","EPHEMERIS_TYPE":"0","OBJECT_ID":"2022-045AX","ARG_OF_PERICENTER":"86.1241","TLE_LINE1":"1 52376U 22045AX  23119.74166461  .00006416  00000-0  42056-3 0  9994","RCS_SIZE":"LARGE","BSTAR":"0.00042056000000","MEAN_ANOMALY":"273.9894","CLASSIFICATION_TYPE":"U","OBJECT_TYPE":"PAYLOAD","FILE":"3896774","MEAN_MOTION_DOT":"0.00006416","REF_FRAME":"TEME","GP_ID":"230939743","SEMIMAJOR_AXIS":"6917.815","NORAD_CAT_ID":"52376","INCLINATION":"53.2157","MEAN_MOTION":"15.08861506","RA_OF_ASC_NODE":"200.0753","MEAN_MOTION_DDOT":"0.0000000000000","REV_AT_EPOCH":"5817"},{"CENTER_NAME":"EARTH","LAUNCH_DATE":"2022-04-29","TLE_LINE2":"2 52377  53.2156 201.3797 0000945 129.5032 230.6044 15.08849117 58126","TIME_SYSTEM":"UTC","APOAPSIS":"540.371","OBJECT_NAME":"STARLINK-3805","MEAN_ELEMENT_THEORY":"SGP4","PERIOD":"95.437","ECCENTRICITY":"0.00009450","SITE":"AFETR","PERIAPSIS":"539.064","ELEMENT_SET_NO":"999","COUNTRY_CODE":"US","EPOCH":"2023-04-29T11:58:17.804352","DECAY_DATE":null,"RCS_SIZE":"LARGE","BSTAR":"0.00048739000000","TLE_LINE1":"1 52377U 22045AY  23119.49881718  .00007479  00000-0  48739-3 0  9990","ARG_OF_PERICENTER":"129.5032","EPHEMERIS_TYPE":"0","OBJECT_ID":"2022-045AY","MEAN_MOTION":"15.08849117","RA_OF_ASC_NODE":"201.3797","MEAN_MOTION_DDOT":"0.0000000000000","REV_AT_EPOCH":"5812","NORAD_CAT_ID":"52377","INCLINATION":"53.2156","OBJECT_TYPE":"PAYLOAD","FILE":"3896517","REF_FRAME":"TEME","MEAN_MOTION_DOT":"0.00007479","GP_ID":"230930273","SEMIMAJOR_AXIS":"6917.853","MEAN_ANOMALY":"230.6044","CLASSIFICATION_TYPE":"U"},{"MEAN_MOTION":"15.08832099","RA_OF_ASC_NODE":"201.0008","REV_AT_EPOCH":"5814","MEAN_MOTION_DDOT":"0.0000000000000","INCLINATION":"53.2164","NORAD_CAT_ID":"52378","REF_FRAME":"TEME","MEAN_MOTION_DOT":"-0.00002332","FILE":"3896517","OBJECT_TYPE":"PAYLOAD","SEMIMAJOR_AXIS":"6917.905","GP_ID":"230931006","CLASSIFICATION_TYPE":"U","MEAN_ANOMALY":"268.9837","BSTAR":"-0.00012850000000","RCS_SIZE":"LARGE","TLE_LINE1":"1 52378U 22045AZ  23119.53559284 -.00002332  00000-0 -12850-3 0  9996","ARG_OF_PERICENTER":"91.1357","EPHEMERIS_TYPE":"0","OBJECT_ID":"2022-045AZ","ELEMENT_SET_NO":"999","COUNTRY_CODE":"US","EPOCH":"2023-04-29T12:51:15.221376","DECAY_DATE":null,"CENTER_NAME":"EARTH","LAUNCH_DATE":"2022-04-29","OBJECT_NAME":"STARLINK-3806","APOAPSIS":"540.992","TLE_LINE2":"2 52378  53.2164 201.0008 0001767  91.1357 268.9837 15.08832099 58142","TIME_SYSTEM":"UTC","MEAN_ELEMENT_THEORY":"SGP4","ECCENTRICITY":"0.00017670","PERIOD":"95.438","SITE":"AFETR","PERIAPSIS":"538.547"},{"MEAN_ELEMENT_THEORY":"SGP4","TIME_SYSTEM":"UTC","TLE_LINE2":"2 52379  53.2155 201.2757 0001234  89.7645 270.3489 15.08836473 58137","APOAPSIS":"540.610","OBJECT_NAME":"STARLINK-3800","LAUNCH_DATE":"2022-04-29","CENTER_NAME":"EARTH","PERIAPSIS":"538.903","SITE":"AFETR","PERIOD":"95.438","ECCENTRICITY":"0.00012340","COUNTRY_CODE":"US","ELEMENT_SET_NO":"999","DECAY_DATE":null,"EPOCH":"2023-04-29T11:21:10.344960","TLE_LINE1":"1 52379U 22045BA  23119.47303640  .00002264  00000-0  16030-3 0  9999","RCS_SIZE":"LARGE","BSTAR":"0.00016030000000","OBJECT_ID":"2022-045BA","EPHEMERIS_TYPE":"0","ARG_OF_PERICENTER":"89.7645","NORAD_CAT_ID":"52379","INCLINATION":"53.2155","MEAN_MOTION_DDOT":"0.0000000000000","REV_AT_EPOCH":"5813","RA_OF_ASC_NODE":"201.2757","MEAN_MOTION":"15.08836473","MEAN_ANOMALY":"270.3489","CLASSIFICATION_TYPE":"U","GP_ID":"230929273","SEMIMAJOR_AXIS":"6917.891","OBJECT_TYPE":"PAYLOAD","FILE":"3896517","REF_FRAME":"TEME","MEAN_MOTION_DOT":"0.00002264"},{"GP_ID":"230939319","SEMIMAJOR_AXIS":"6917.854","OBJECT_TYPE":"PAYLOAD","FILE":"3896771","REF_FRAME":"TEME","MEAN_MOTION_DOT":"0.00001002","MEAN_ANOMALY":"275.6576","CLASSIFICATION_TYPE":"U","MEAN_MOTION_DDOT":"0.0000000000000","REV_AT_EPOCH":"5827","RA_OF_ASC_NODE":"191.1055","MEAN_MOTION":"15.08848731","NORAD_CAT_ID":"52380","INCLINATION":"53.2161","ARG_OF_PERICENTER":"84.4563","EPHEMERIS_TYPE":"0","OBJECT_ID":"2022-045BB","RCS_SIZE":"LARGE","BSTAR":"0.00008103300000","TLE_LINE1":"1 52380U 22045BB  23119.51811594  .00001002  00000-0  81033-4 0  9993","EPOCH":"2023-04-29T12:26:05.217216","DECAY_DATE":null,"ELEMENT_SET_NO":"999","COUNTRY_CODE":"US","SITE":"AFETR","PERIOD":"95.437","ECCENTRICITY":"0.00012910","PERIAPSIS":"538.826","LAUNCH_DATE":"2022-04-29","CENTER_NAME":"EARTH","MEAN_ELEMENT_THEORY":"SGP4","TLE_LINE2":"2 52380  53.2161 191.1055 0001291  84.4563 275.6576 15.08848731 58278","TIME_SYSTEM":"UTC","APOAPSIS":"540.612","OBJECT_NAME":"STARLINK-3793"},{"EPOCH":"2023-04-29T12:45:57.111264","DECAY_DATE":null,"ELEMENT_SET_NO":"999","COUNTRY_CODE":"US","ECCENTRICITY":"0.00013270","PERIOD":"95.438","SITE":"AFETR","PERIAPSIS":"538.848","CENTER_NAME":"EARTH","LAUNCH_DATE":"2022-04-29","OBJECT_NAME":"STARLINK-3803","APOAPSIS":"540.684","TLE_LINE2":"2 52381  53.2152 201.0127 0001327  89.5201 270.5944 15.08833394 58143","TIME_SYSTEM":"UTC","MEAN_ELEMENT_THEORY":"SGP4","MEAN_MOTION_DOT":"-0.00000003","REF_FRAME":"TEME","OBJECT_TYPE":"PAYLOAD","FILE":"3896517","SEMIMAJOR_AXIS":"6917.901","GP_ID":"230930774","CLASSIFICATION_TYPE":"U","MEAN_ANOMALY":"270.5944","MEAN_MOTION":"15.08833394","RA_OF_ASC_NODE":"201.0127","REV_AT_EPOCH":"5814","MEAN_MOTION_DDOT":"0.0000000000000","INCLINATION":"53.2152","NORAD_CAT_ID":"52381","ARG_OF_PERICENTER":"89.5201","OBJECT_ID":"2022-045BC","EPHEMERIS_TYPE":"0","BSTAR":"0.00001788200000","RCS_SIZE":"LARGE","TLE_LINE1":"1 52381U 22045BC  23119.53191101 -.00000003  00000-0  17882-4 0  9993"},{"PERIAPSIS":"538.880","ECCENTRICITY":"0.00012430","PERIOD":"95.437","SITE":"AFETR","APOAPSIS":"540.599","OBJECT_NAME":"STARLINK-3799","TLE_LINE2":"2 52382  53.2152 201.0404 0001243  99.7048 260.4085 15.08841939 58149","TIME_SYSTEM":"UTC","MEAN_ELEMENT_THEORY":"SGP4","CENTER_NAME":"EARTH","LAUNCH_DATE":"2022-04-29","DECAY_DATE":null,"EPOCH":"2023-04-29T12:40:39.345888","COUNTRY_CODE":"US","ELEMENT_SET_NO":"999","EPHEMERIS_TYPE":"0","OBJECT_ID":"2022-045BD","ARG_OF_PERICENTER":"99.7048","TLE_LINE1":"1 52382U 22045BD  23119.52823317  .00003882  00000-0  26186-3 0  9997","BSTAR":"0.00026186000000","RCS_SIZE":"LARGE","CLASSIFICATION_TYPE":"U","MEAN_ANOMALY":"260.4085","MEAN_MOTION_DOT":"0.00003882","REF_FRAME":"TEME","FILE":"3896517","OBJECT_TYPE":"PAYLOAD","SEMIMAJOR_AXIS":"6917.874","GP_ID":"230930506","INCLINATION":"53.2152","NORAD_CAT_ID":"52382","MEAN_MOTION":"15.08841939","RA_OF_ASC_NODE":"201.0404","REV_AT_EPOCH":"5814","MEAN_MOTION_DDOT":"0.0000000000000"},{"MEAN_ANOMALY":"265.9505","CLASSIFICATION_TYPE":"U","OBJECT_TYPE":"PAYLOAD","FILE":"3896517","MEAN_MOTION_DOT":"0.00009851","REF_FRAME":"TEME","GP_ID":"230929774","SEMIMAJOR_AXIS":"6917.889","NORAD_CAT_ID":"52383","INCLINATION":"53.2172","RA_OF_ASC_NODE":"191.2549","MEAN_MOTION":"15.08837075","MEAN_MOTION_DDOT":"0.0000000000000","REV_AT_EPOCH":"5827","OBJECT_ID":"2022-045BE","EPHEMERIS_TYPE":"0","ARG_OF_PERICENTER":"94.1601","TLE_LINE1":"1 52383U 22045BE  23119.48499836  .00009851  00000-0  63622-3 0  9996","RCS_SIZE":"LARGE","BSTAR":"0.00063622000000","DECAY_DATE":null,"EPOCH":"2023-04-29T11:38:23.858304","COUNTRY_CODE":"US","ELEMENT_SET_NO":"999","PERIAPSIS":"539.064","PERIOD":"95.438","ECCENTRICITY":"0.00009980","SITE":"AFETR","TLE_LINE2":"2 52383  53.2172 191.2549 0000998  94.1601 265.9505 15.08837075 58279","TIME_SYSTEM":"UTC","APOAPSIS":"540.445","OBJECT_NAME":"STARLINK-3811","MEAN_ELEMENT_THEORY":"SGP4","CENTER_NAME":"EARTH","LAUNCH_DATE":"2022-04-29"}];
